H1 CPF 01  gfz 2022 09 03 12  7462 terrasarx 
H2 0702601  6201 31698    2022 09 03 12 59 42 2022 09 08 00 00 42   120 1 1  0 0 0
H9
10 0 59829  65502.000000  0    4881701.018    418841.624  -4850004.379
10 0 59829  65622.000000  0    5481944.864    255736.890  -4172035.049
10 0 59829  65742.000000  0    5983829.821     78539.046  -3420960.303
10 0 59829  65862.000000  0    6378308.023   -107869.643  -2609877.197
10 0 59829  65982.000000  0    6658280.599   -298298.653  -1752967.729
10 0 59829  66102.000000  0    6818738.339   -487375.624   -865250.908
10 0 59829  66222.000000  0    6856862.129   -669678.443     37683.382
10 0 59829  66342.000000  0    6772081.419   -839870.610    939953.779
10 0 59829  66462.000000  0    6566087.417   -992836.182   1825674.903
10 0 59829  66582.000000  0    6242801.528  -1123810.614   2679246.402
10 0 59829  66702.000000  0    5808296.299  -1228503.758   3485636.919
10 0 59829  66822.000000  0    5270674.951  -1303211.992   4230654.500
10 0 59829  66942.000000  0    4639911.471  -1344917.868   4901200.463
10 0 59829  67062.000000  0    3927655.358  -1351372.627   5485500.162
10 0 59829  67182.000000  0    3147007.245  -1321160.799   5973308.007
10 0 59829  67302.000000  0    2312269.253  -1253746.592   6356082.526
10 0 59829  67422.000000  0    1438677.569  -1149500.607   6627130.110
10 0 59829  67542.000000  0     542120.067  -1009706.439   6781716.884
10 0 59829  67662.000000  0    -361154.861   -836546.247   6817145.499
10 0 59829  67782.000000  0   -1254832.165   -633066.765   6732797.922
10 0 59829  67902.000000  0   -2122823.233   -403125.858   6530145.256
10 0 59829  68022.000000  0   -2949553.975   -151320.049   6212723.953
10 0 59829  68142.000000  0   -3720244.598    117105.637   5786079.222
10 0 59829  68262.000000  0   -4421177.240    396364.002   5257674.429
10 0 59829  68382.000000  0   -5039945.831    680246.517   4636766.440
10 0 59829  68502.000000  0   -5565683.801    962256.519   3934248.719
10 0 59829  68622.000000  0   -5989263.529   1235752.365   3162463.140
10 0 59829  68742.000000  0   -6303464.154   1494097.341   2334984.752
10 0 59829  68862.000000  0   -6503103.900   1730812.516   1466381.425
10 0 59829  68982.000000  0   -6585133.535   1939729.443    571952.757
10 0 59829  69102.000000  0   -6548686.560   2115138.692   -332547.613
10 0 59829  69222.000000  0   -6395084.563   2251929.309  -1231198.489
10 0 59829  69342.000000  0   -6127798.746   2345716.512  -2108199.786
10 0 59829  69462.000000  0   -5752368.997   2392954.895  -2948158.480
10 0 59829  69582.000000  0   -5276280.602   2391033.364  -3736364.980
10 0 59829  69702.000000  0   -4708804.036   2338349.073  -4459052.290
10 0 59829  69822.000000  0   -4060803.200   2234359.757  -5103633.855
10 0 59829  69942.000000  0   -3344517.168   2079613.916  -5658915.791
10 0 59829  70062.000000  0   -2573322.312   1875758.684  -6115281.512
10 0 59829  70182.000000  0   -1761478.234   1625525.255  -6464848.431
10 0 59829  70302.000000  0    -923861.891   1332692.054  -6701591.909
10 0 59829  70422.000000  0     -75698.106   1002027.044  -6821437.959
10 0 59829  70542.000000  0     767710.834    639210.854  -6822325.052
10 0 59829  70662.000000  0    1591254.337    250741.343  -6704237.980
10 0 59829  70782.000000  0    2380279.225   -156180.414  -6469207.761
10 0 59829  70902.000000  0    3120844.620   -573779.687  -6121280.514
10 0 59829  71022.000000  0    3799965.671   -993852.215  -5666454.650
10 0 59829  71142.000000  0    4405839.938  -1407920.247  -5112587.516
10 0 59829  71262.000000  0    4928056.674  -1807400.062  -4469271.957
10 0 59829  71382.000000  0    5357782.567  -2183776.925  -3747680.841
10 0 59829  71502.000000  0    5687920.601  -2528783.710  -2960382.289
10 0 59829  71622.000000  0    5913238.229  -2834579.808  -2121126.605
10 0 59829  71742.000000  0    6030460.299  -3093925.976  -1244608.182
10 0 59829  71862.000000  0    6038324.783  -3300350.739   -346207.365
10 0 59829  71982.000000  0    5937598.973  -3448304.468    558284.057
10 0 59829  72102.000000  0    5731055.446  -3533296.916   1452947.206
10 0 59829  72222.000000  0    5423407.112  -3552014.124   2322026.561
10 0 59829  72342.000000  0    5021200.906  -3502410.273   3150216.050
10 0 59829  72462.000000  0    4532676.625  -3383773.755   3922935.673
10 0 59829  72582.000000  0    3967593.969  -3196764.925   4626592.559
10 0 59829  72702.000000  0    3337031.422  -2943426.877   5248823.397
10 0 59829  72822.000000  0    2653160.947  -2627166.267   5778710.758
10 0 59829  72942.000000  0    1929007.030  -2252706.363   6206970.911
10 0 59829  73062.000000  0    1178193.664  -1826014.385   6526111.049
10 0 59829  73182.000000  0     414684.891  -1354203.999   6730554.333
10 0 59829  73302.000000  0    -347476.116   -845414.569   6816731.347
10 0 59829  73422.000000  0   -1094424.777   -308669.686   6783137.775
10 0 59829  73542.000000  0   -1812726.029    246282.571   6630358.824
10 0 59829  73662.000000  0   -2489614.974    809146.158   6361059.795
10 0 59829  73782.000000  0   -3113223.744   1369267.088   5979942.809
10 0 59829  73902.000000  0   -3672791.209   1915834.109   5493670.294
10 0 59829  74022.000000  0   -4158852.976   2438087.394   4910755.406
10 0 59829  74142.000000  0   -4563407.540   2925532.088   4241418.927
10 0 59829  74262.000000  0   -4880054.696   3368150.623   3497413.550
10 0 59829  74382.000000  0   -5104102.718   3756610.567   2691819.812
10 0 59829  74502.000000  0   -5232642.701   4082463.704   1838816.208
10 0 59829  74622.000000  0   -5264588.218   4338331.187    953426.000
10 0 59829  74742.000000  0   -5200677.018   4518069.021     51245.347
10 0 59829  74862.000000  0   -5043435.687   4616909.043   -851838.998
10 0 59829  74982.000000  0   -4797108.815   4631574.104  -1739938.918
10 0 59829  75102.000000  0   -4467552.032   4560362.410  -2597454.170
10 0 59829  75222.000000  0   -4062093.445   4403197.969  -3409353.352
10 0 59829  75342.000000  0   -3589367.044   4161647.902  -4161440.585
10 0 59829  75462.000000  0   -3059123.716   3838906.902  -4840602.097
10 0 59829  75582.000000  0   -2482025.836   3439750.138  -5435028.696
10 0 59829  75702.000000  0   -1869430.740   2970457.544  -5934413.240
10 0 59829  75822.000000  0   -1233165.212   2438709.076  -6330120.138
10 0 59829  75942.000000  0    -585297.237   1853453.915  -6615322.887
10 0 59829  76062.000000  0      62089.990   1224758.283  -6785110.431
10 0 59829  76182.000000  0     697118.117    563633.143  -6836562.654
10 0 59829  76302.000000  0    1308326.664   -118154.935  -6768796.542
10 0 59829  76422.000000  0    1884875.642   -808289.296  -6582978.657
10 0 59829  76542.000000  0    2416732.751  -1494119.824  -6282306.578
10 0 59829  76662.000000  0    2894845.444  -2162888.958  -5871959.937
10 0 59829  76782.000000  0    3311294.474  -2801963.871  -5359021.596
10 0 59829  76902.000000  0    3659428.544  -3399074.883  -4752367.233
10 0 59829  77022.000000  0    3933973.947  -3942551.800  -4062520.622
10 0 59829  77142.000000  0    4131118.204  -4421553.423  -3301481.411
10 0 59829  77262.000000  0    4248567.912  -4826288.333  -2482525.105
10 0 59829  77382.000000  0    4285577.888  -5148221.201  -1619975.954
10 0 59829  77502.000000  0    4242948.216  -5380258.873   -728956.236
10 0 59829  77622.000000  0    4122990.448  -5516909.909    174882.623
10 0 59829  77742.000000  0    3929462.432  -5554414.238   1075641.358
10 0 59829  77862.000000  0    3667473.972  -5490839.004   1957461.370
10 0 59829  77982.000000  0    3343363.964  -5326136.120   2804813.541
10 0 59829  78102.000000  0    2964553.046  -5062162.670   3602778.817
10 0 59829  78222.000000  0    2539376.596  -4702662.446   4337316.921
10 0 59829  78342.000000  0    2076902.143  -4253209.582   4995516.847
10 0 59829  78462.000000  0    1586735.216  -3721115.874   5565824.271
10 0 59829  78582.000000  0    1078818.592  -3115304.329   6038242.749
10 0 59829  78702.000000  0     563228.814  -2446151.872   6404503.681
10 0 59829  78822.000000  0      49975.780  -1725306.273   6658204.003
10 0 59829  78942.000000  0    -451190.673   -965480.676   6794911.711
10 0 59829  79062.000000  0    -930964.692   -180227.687   6812239.644
10 0 59829  79182.000000  0   -1380656.276    616302.897   6709884.360
10 0 59829  79302.000000  0   -1792348.163   1409618.502   6489630.820
10 0 59829  79422.000000  0   -2159035.257   2185146.418   6155323.232
10 0 59829  79542.000000  0   -2474744.661   2928501.187   5712802.210
10 0 59829  79662.000000  0   -2734634.112   3625752.682   5169808.690
10 0 59829  79782.000000  0   -2935068.549   4263690.508   4535855.545
10 0 59829  79902.000000  0   -3073672.209   4830080.067   3822066.245
10 0 59829  80022.000000  0   -3149354.753   5313904.729   3040982.945
10 0 59829  80142.000000  0   -3162310.525   5705587.814   2206346.077
10 0 59829  80262.000000  0   -3113991.365   5997188.719   1332850.187
10 0 59829  80382.000000  0   -3007052.938   6182569.355    435880.794
10 0 59829  80502.000000  0   -2845275.796   6257526.861   -468763.769
10 0 59829  80622.000000  0   -2633463.865   6219887.816  -1365160.055
10 0 59829  80742.000000  0   -2377321.359   6069560.410  -2237551.315
10 0 59829  80862.000000  0   -2083310.326   5808540.946  -3070632.596
10 0 59829  80982.000000  0   -1758495.891   5440880.781  -3849821.608
10 0 59829  81102.000000  0   -1410383.068   4972613.553  -4561514.708
10 0 59829  81222.000000  0   -1046748.831   4411644.352  -5193320.408
10 0 59829  81342.000000  0    -675473.428   3767606.555  -5734268.374
10 0 59829  81462.000000  0    -304373.713   3051687.489  -6174991.884
10 0 59829  81582.000000  0      58957.513   2276426.458  -6507879.211
10 0 59829  81702.000000  0     407301.987   1455492.244  -6727192.858
10 0 59829  81822.000000  0     733954.629    603443.119  -6829159.474
10 0 59829  81942.000000  0    1032848.953   -264527.868  -6812027.612
99
